{
  "type": "FeatureCollection",
  "features": [
    {
      "type": "Feature",
      "properties": {
        "norad_id": 39766,
        "name": "ALOS-2",
        "group": "resource",
        "lat": 69.3396199814502,
        "lon": 53.65957420964606,
        "alt_km": 623.4099849446866,
        "timestamp": "2025-12-06T09:34:16.574949+00:00",
        "meta_object_name": "ALOS-2",
        "meta_object_id": "2014-029A",
        "meta_epoch": "2025-12-05T21:53:23.283456",
        "meta_mean_motion": 14.7946082,
        "meta_eccentricity": 0.00015101,
        "meta_inclination": 97.9237,
        "meta_ra_of_asc_node": 74.8558,
        "meta_arg_of_pericenter": 106.3059,
        "meta_mean_anomaly": 253.8319,
        "meta_ephemeris_type": 0,
        "meta_classification_type": "U",
        "meta_norad_cat_id": 39766,
        "meta_element_set_no": 999,
        "meta_rev_at_epoch": 62300,
        "meta_bstar": 0.00046040631,
        "meta_mean_motion_dot": 3.388e-05,
        "meta_mean_motion_ddot": 0,
        "tle_line1": "1 39766U 14029A   25339.91207504  .00003388  00000+0  46041-3 0  9996",
        "tle_line2": "2 39766  97.9237  74.8558 0001510 106.3059 253.8319 14.79460820623001"
      },
      "geometry": {
        "type": "Point",
        "coordinates": [
          53.65957420964606,
          69.3396199814502
        ]
      }
    },
    {
      "type": "Feature",
      "properties": {
        "norad_id": 40010,
        "name": "KAZEOSAT 2",
        "group": "resource",
        "lat": -31.13378163962092,
        "lon": 0.44476679346102727,
        "alt_km": 614.3131095866902,
        "timestamp": "2025-12-06T09:34:16.574960+00:00",
        "meta_object_name": "KAZEOSAT 2",
        "meta_object_id": "2014-033A",
        "meta_epoch": "2025-12-05T21:18:11.587968",
        "meta_mean_motion": 14.85150652,
        "meta_eccentricity": 0.00073555,
        "meta_inclination": 97.551,
        "meta_ra_of_asc_node": 184.5559,
        "meta_arg_of_pericenter": 232.0447,
        "meta_mean_anomaly": 128.0105,
        "meta_ephemeris_type": 0,
        "meta_classification_type": "U",
        "meta_norad_cat_id": 40010,
        "meta_element_set_no": 999,
        "meta_rev_at_epoch": 62026,
        "meta_bstar": 0.00017228965,
        "meta_mean_motion_dot": 1.425e-05,
        "meta_mean_motion_ddot": 0,
        "tle_line1": "1 40010U 14033A   25339.88763412  .00001425  00000+0  17229-3 0  9992",
        "tle_line2": "2 40010  97.5510 184.5559 0007355 232.0447 128.0105 14.85150652620263"
      },
      "geometry": {
        "type": "Point",
        "coordinates": [
          0.44476679346102727,
          -31.13378163962092
        ]
      }
    },
    {
      "type": "Feature",
      "properties": {
        "norad_id": 40011,
        "name": "HODOYOSHI-4",
        "group": "resource",
        "lat": -65.63387812405476,
        "lon": -27.412792225056283,
        "alt_km": 598.6794214505462,
        "timestamp": "2025-12-06T09:34:16.574970+00:00",
        "meta_object_name": "HODOYOSHI-4",
        "meta_object_id": "2014-033B",
        "meta_epoch": "2025-12-05T22:46:40.921536",
        "meta_mean_motion": 14.87443141,
        "meta_eccentricity": 0.00227712,
        "meta_inclination": 97.5414,
        "meta_ra_of_asc_node": 169.1678,
        "meta_arg_of_pericenter": 223.7439,
        "meta_mean_anomaly": 136.1975,
        "meta_ephemeris_type": 0,
        "meta_classification_type": "U",
        "meta_norad_cat_id": 40011,
        "meta_element_set_no": 999,
        "meta_rev_at_epoch": 62007,
        "meta_bstar": 0.000417192,
        "meta_mean_motion_dot": 3.743e-05,
        "meta_mean_motion_ddot": 0,
        "tle_line1": "1 40011U 14033B   25339.94908474  .00003743  00000+0  41719-3 0  9995",
        "tle_line2": "2 40011  97.5414 169.1678 0022771 223.7439 136.1975 14.87443141620079"
      },
      "geometry": {
        "type": "Point",
        "coordinates": [
          -27.412792225056283,
          -65.63387812405476
        ]
      }
    },
    {
      "type": "Feature",
      "properties": {
        "norad_id": 40013,
        "name": "DEIMOS-2",
        "group": "resource",
        "lat": -78.48090805817606,
        "lon": -102.61372484597521,
        "alt_km": 596.8271964167689,
        "timestamp": "2025-12-06T09:34:16.574980+00:00",
        "meta_object_name": "DEIMOS-2",
        "meta_object_id": "2014-033D",
        "meta_epoch": "2025-12-05T22:40:30.462528",
        "meta_mean_motion": 14.92926208,
        "meta_eccentricity": 9.699e-05,
        "meta_inclination": 97.6072,
        "meta_ra_of_asc_node": 215.9686,
        "meta_arg_of_pericenter": 93.8494,
        "meta_mean_anomaly": 266.2837,
        "meta_ephemeris_type": 0,
        "meta_classification_type": "U",
        "meta_norad_cat_id": 40013,
        "meta_element_set_no": 999,
        "meta_rev_at_epoch": 60888,
        "meta_bstar": 0.00045276166,
        "meta_mean_motion_dot": 4.644e-05,
        "meta_mean_motion_ddot": 0,
        "tle_line1": "1 40013U 14033D   25339.94479702  .00004644  00000+0  45276-3 0  9997",
        "tle_line2": "2 40013  97.6072 215.9686 0000969  93.8494 266.2837 14.92926208608886"
      },
      "geometry": {
        "type": "Point",
        "coordinates": [
          -102.61372484597521,
          -78.48090805817606
        ]
      }
    },
    {
      "type": "Feature",
      "properties": {
        "norad_id": 40015,
        "name": "HODOYOSHI-3",
        "group": "resource",
        "lat": -52.10123012318873,
        "lon": -43.392492310225414,
        "alt_km": 603.4834378148635,
        "timestamp": "2025-12-06T09:34:16.574991+00:00",
        "meta_object_name": "HODOYOSHI-3",
        "meta_object_id": "2014-033F",
        "meta_epoch": "2025-12-05T22:49:09.678144",
        "meta_mean_motion": 14.84769754,
        "meta_eccentricity": 0.00318333,
        "meta_inclination": 97.6195,
        "meta_ra_of_asc_node": 146.0813,
        "meta_arg_of_pericenter": 271.1821,
        "meta_mean_anomaly": 88.5748,
        "meta_ephemeris_type": 0,
        "meta_classification_type": "U",
        "meta_norad_cat_id": 40015,
        "meta_element_set_no": 999,
        "meta_rev_at_epoch": 61894,
        "meta_bstar": 0.00039312285,
        "meta_mean_motion_dot": 3.312e-05,
        "meta_mean_motion_ddot": 0,
        "tle_line1": "1 40015U 14033F   25339.95080646  .00003312  00000+0  39312-3 0  9990",
        "tle_line2": "2 40015  97.6195 146.0813 0031833 271.1821  88.5748 14.84769754618945"
      },
      "geometry": {
        "type": "Point",
        "coordinates": [
          -43.392492310225414,
          -52.10123012318873
        ]
      }
    },
    {
      "type": "Feature",
      "properties": {
        "norad_id": 40053,
        "name": "SPOT 7",
        "group": "resource",
        "lat": 35.58940167783515,
        "lon": -131.53626861896794,
        "alt_km": 687.7337932368691,
        "timestamp": "2025-12-06T09:34:16.575001+00:00",
        "meta_object_name": "SPOT 7",
        "meta_object_id": "2014-034A",
        "meta_epoch": "2025-12-05T21:24:24.361632",
        "meta_mean_motion": 14.60720151,
        "meta_eccentricity": 0.00015296,
        "meta_inclination": 98.0916,
        "meta_ra_of_asc_node": 42.125,
        "meta_arg_of_pericenter": 95.4577,
        "meta_mean_anomaly": 264.6798,
        "meta_ephemeris_type": 0,
        "meta_classification_type": "U",
        "meta_norad_cat_id": 40053,
        "meta_element_set_no": 999,
        "meta_rev_at_epoch": 60891,
        "meta_bstar": 0.0002329125,
        "meta_mean_motion_dot": 1.09e-05,
        "meta_mean_motion_ddot": 0,
        "tle_line1": "1 40053U 14034A   25339.89194863  .00001090  00000+0  23291-3 0  9993",
        "tle_line2": "2 40053  98.0916  42.1250 0001529  95.4577 264.6798 14.60720151608918"
      },
      "geometry": {
        "type": "Point",
        "coordinates": [
          -131.53626861896794,
          35.58940167783515
        ]
      }
    },
    {
      "type": "Feature",
      "properties": {
        "norad_id": 40072,
        "name": "SKYSAT-B",
        "group": "resource",
        "lat": -12.808576145293776,
        "lon": 101.85423352881166,
        "alt_km": 607.3477084641409,
        "timestamp": "2025-12-06T09:34:16.575011+00:00",
        "meta_object_name": "SKYSAT-B",
        "meta_object_id": "2014-037D",
        "meta_epoch": "2025-12-05T21:24:16.391232",
        "meta_mean_motion": 14.87287242,
        "meta_eccentricity": 0.00055907,
        "meta_inclination": 98.36,
        "meta_ra_of_asc_node": 283.2366,
        "meta_arg_of_pericenter": 170.8908,
        "meta_mean_anomaly": 189.2409,
        "meta_ephemeris_type": 0,
        "meta_classification_type": "U",
        "meta_norad_cat_id": 40072,
        "meta_element_set_no": 999,
        "meta_rev_at_epoch": 61722,
        "meta_bstar": 0.00033723647,
        "meta_mean_motion_dot": 2.982e-05,
        "meta_mean_motion_ddot": 0,
        "tle_line1": "1 40072U 14037D   25339.89185638  .00002982  00000+0  33724-3 0  9990",
        "tle_line2": "2 40072  98.3600 283.2366 0005590 170.8908 189.2409 14.87287242617229"
      },
      "geometry": {
        "type": "Point",
        "coordinates": [
          101.85423352881166,
          -12.808576145293776
        ]
      }
    }
  ]
}